{
  "type": "FeatureCollection",
  "features": [
    {
      "type": "Feature",
      "properties": {
        "norad_id": 41860,
        "name": "GSAT0212 (GALILEO 16)",
        "group": "galileo",
        "lat": 48.22479048229135,
        "lon": 156.91978015767796,
        "alt_km": 23210.87267090763,
        "timestamp": "2025-12-09T05:43:20.988715+00:00",
        "meta_object_name": "GSAT0212 (GALILEO 16)",
        "meta_object_id": "2016-069B",
        "meta_epoch": "2025-12-06T04:47:33.838080",
        "meta_mean_motion": 1.70474471,
        "meta_eccentricity": 0.00022225,
        "meta_inclination": 55.376,
        "meta_ra_of_asc_node": 106.4267,
        "meta_arg_of_pericenter": 32.4045,
        "meta_mean_anomaly": 327.5613,
        "meta_ephemeris_type": 0,
        "meta_classification_type": "U",
        "meta_norad_cat_id": 41860,
        "meta_element_set_no": 999,
        "meta_rev_at_epoch": 5636,
        "meta_bstar": 0,
        "meta_mean_motion_dot": 6e-08,
        "meta_mean_motion_ddot": 0,
        "tle_line1": "1 41860U 16069B   25340.19969720  .00000006  00000+0  00000+0 0  9992",
        "tle_line2": "2 41860  55.3760 106.4267 0002222  32.4045 327.5613  1.70474471 56361"
      },
      "geometry": {
        "type": "Point",
        "coordinates": [
          156.91978015767796,
          48.22479048229135
        ]
      }
    },
    {
      "type": "Feature",
      "properties": {
        "norad_id": 41861,
        "name": "GSAT0213 (GALILEO 17)",
        "group": "galileo",
        "lat": -15.824811429953694,
        "lon": -62.38006058805784,
        "alt_km": 23223.696705189155,
        "timestamp": "2025-12-09T05:43:20.988727+00:00",
        "meta_object_name": "GSAT0213 (GALILEO 17)",
        "meta_object_id": "2016-069C",
        "meta_epoch": "2025-12-07T03:41:32.905248",
        "meta_mean_motion": 1.70474767,
        "meta_eccentricity": 0.00022126,
        "meta_inclination": 55.379,
        "meta_ra_of_asc_node": 106.408,
        "meta_arg_of_pericenter": 283.542,
        "meta_mean_anomaly": 76.3889,
        "meta_ephemeris_type": 0,
        "meta_classification_type": "U",
        "meta_norad_cat_id": 41861,
        "meta_element_set_no": 999,
        "meta_rev_at_epoch": 5624,
        "meta_bstar": 0,
        "meta_mean_motion_dot": 7e-08,
        "meta_mean_motion_ddot": 0,
        "tle_line1": "1 41861U 16069C   25341.15385307  .00000007  00000+0  00000+0 0  9994",
        "tle_line2": "2 41861  55.3790 106.4080 0002212 283.5420  76.3889  1.70474767 56242"
      },
      "geometry": {
        "type": "Point",
        "coordinates": [
          -62.38006058805784,
          -15.824811429953694
        ]
      }
    },
    {
      "type": "Feature",
      "properties": {
        "norad_id": 41862,
        "name": "GSAT0214 (GALILEO 18)",
        "group": "galileo",
        "lat": 50.76100052580727,
        "lon": -131.34460343563083,
        "alt_km": 23219.84089617694,
        "timestamp": "2025-12-09T05:43:20.988744+00:00",
        "meta_object_name": "GSAT0214 (GALILEO 18)",
        "meta_object_id": "2016-069D",
        "meta_epoch": "2025-12-07T21:16:28.160256",
        "meta_mean_motion": 1.70474622,
        "meta_eccentricity": 0.00012492,
        "meta_inclination": 55.3777,
        "meta_ra_of_asc_node": 106.3805,
        "meta_arg_of_pericenter": 290.0949,
        "meta_mean_anomaly": 69.8506,
        "meta_ephemeris_type": 0,
        "meta_classification_type": "U",
        "meta_norad_cat_id": 41862,
        "meta_element_set_no": 999,
        "meta_rev_at_epoch": 5638,
        "meta_bstar": 0,
        "meta_mean_motion_dot": 8e-08,
        "meta_mean_motion_ddot": 0,
        "tle_line1": "1 41862U 16069D   25341.88643704  .00000008  00000+0  00000+0 0  9994",
        "tle_line2": "2 41862  55.3777 106.3805 0001249 290.0949  69.8506  1.70474622 56388"
      },
      "geometry": {
        "type": "Point",
        "coordinates": [
          -131.34460343563083,
          50.76100052580727
        ]
      }
    },
    {
      "type": "Feature",
      "properties": {
        "norad_id": 43055,
        "name": "GSAT0215 (GALILEO 19)",
        "group": "galileo",
        "lat": 9.042728115171089,
        "lon": 40.37956963233205,
        "alt_km": 23227.47312537682,
        "timestamp": "2025-12-09T05:43:20.988756+00:00",
        "meta_object_name": "GSAT0215 (GALILEO 19)",
        "meta_object_id": "2017-079A",
        "meta_epoch": "2025-12-06T00:43:24.455424",
        "meta_mean_motion": 1.70473755,
        "meta_eccentricity": 0.00048437,
        "meta_inclination": 55.1369,
        "meta_ra_of_asc_node": 226.8228,
        "meta_arg_of_pericenter": 284.5496,
        "meta_mean_anomaly": 75.4946,
        "meta_ephemeris_type": 0,
        "meta_classification_type": "U",
        "meta_norad_cat_id": 43055,
        "meta_element_set_no": 999,
        "meta_rev_at_epoch": 4969,
        "meta_bstar": 0,
        "meta_mean_motion_dot": 3.4e-07,
        "meta_mean_motion_ddot": 0,
        "tle_line1": "1 43055U 17079A   25340.03014416  .00000034  00000+0  00000+0 0  9999",
        "tle_line2": "2 43055  55.1369 226.8228 0004843 284.5496  75.4946  1.70473755 49697"
      },
      "geometry": {
        "type": "Point",
        "coordinates": [
          40.37956963233205,
          9.042728115171089
        ]
      }
    },
    {
      "type": "Feature",
      "properties": {
        "norad_id": 43056,
        "name": "GSAT0216 (GALILEO 20)",
        "group": "galileo",
        "lat": -8.071865893130251,
        "lon": -138.92615308294802,
        "alt_km": 23217.169950036518,
        "timestamp": "2025-12-09T05:43:20.988767+00:00",
        "meta_object_name": "GSAT0216 (GALILEO 20)",
        "meta_object_id": "2017-079B",
        "meta_epoch": "2025-12-08T01:57:06.766848",
        "meta_mean_motion": 1.70473892,
        "meta_eccentricity": 0.00025149,
        "meta_inclination": 55.132,
        "meta_ra_of_asc_node": 226.7661,
        "meta_arg_of_pericenter": 318.3772,
        "meta_mean_anomaly": 41.6956,
        "meta_ephemeris_type": 0,
        "meta_classification_type": "U",
        "meta_norad_cat_id": 43056,
        "meta_element_set_no": 999,
        "meta_rev_at_epoch": 4974,
        "meta_bstar": 0,
        "meta_mean_motion_dot": 1.9e-07,
        "meta_mean_motion_ddot": 0,
        "tle_line1": "1 43056U 17079B   25342.08132832  .00000019  00000+0  00000+0 0  9993",
        "tle_line2": "2 43056  55.1320 226.7661 0002514 318.3772  41.6956  1.70473892 49745"
      },
      "geometry": {
        "type": "Point",
        "coordinates": [
          -138.92615308294802,
          -8.071865893130251
        ]
      }
    },
    {
      "type": "Feature",
      "properties": {
        "norad_id": 43057,
        "name": "GSAT0217 (GALILEO 21)",
        "group": "galileo",
        "lat": -27.849786113302393,
        "lon": 68.33979219216779,
        "alt_km": 23230.856648469446,
        "timestamp": "2025-12-09T05:43:20.988779+00:00",
        "meta_object_name": "GSAT0217 (GALILEO 21)",
        "meta_object_id": "2017-079C",
        "meta_epoch": "2025-12-08T07:14:55.853376",
        "meta_mean_motion": 1.70473894,
        "meta_eccentricity": 0.0002795,
        "meta_inclination": 55.1299,
        "meta_ra_of_asc_node": 226.758,
        "meta_arg_of_pericenter": 342.2851,
        "meta_mean_anomaly": 17.7961,
        "meta_ephemeris_type": 0,
        "meta_classification_type": "U",
        "meta_norad_cat_id": 43057,
        "meta_element_set_no": 999,
        "meta_rev_at_epoch": 4973,
        "meta_bstar": 0,
        "meta_mean_motion_dot": 1.7e-07,
        "meta_mean_motion_ddot": 0,
        "tle_line1": "1 43057U 17079C   25342.30203534  .00000017  00000+0  00000+0 0  9995",
        "tle_line2": "2 43057  55.1299 226.7580 0002795 342.2851  17.7961  1.70473894 49737"
      },
      "geometry": {
        "type": "Point",
        "coordinates": [
          68.33979219216779,
          -27.849786113302393
        ]
      }
    },
    {
      "type": "Feature",
      "properties": {
        "norad_id": 43058,
        "name": "GSAT0218 (GALILEO 22)",
        "group": "galileo",
        "lat": 53.82267370873475,
        "lon": -60.957507745930045,
        "alt_km": 23221.782460815986,
        "timestamp": "2025-12-09T05:43:20.988790+00:00",
        "meta_object_name": "GSAT0218 (GALILEO 22)",
        "meta_object_id": "2017-079D",
        "meta_epoch": "2025-12-06T18:17:46.482720",
        "meta_mean_motion": 1.70473862,
        "meta_eccentricity": 0.00028449,
        "meta_inclination": 55.1307,
        "meta_ra_of_asc_node": 226.7982,
        "meta_arg_of_pericenter": 305.5375,
        "meta_mean_anomaly": 54.5328,
        "meta_ephemeris_type": 0,
        "meta_classification_type": "U",
        "meta_norad_cat_id": 43058,
        "meta_element_set_no": 999,
        "meta_rev_at_epoch": 4973,
        "meta_bstar": 0,
        "meta_mean_motion_dot": 2.9e-07,
        "meta_mean_motion_ddot": 0,
        "tle_line1": "1 43058U 17079D   25340.76234355  .00000029  00000+0  00000+0 0  9992",
        "tle_line2": "2 43058  55.1307 226.7982 0002844 305.5375  54.5328  1.70473862 49733"
      },
      "geometry": {
        "type": "Point",
        "coordinates": [
          -60.957507745930045,
          53.82267370873475
        ]
      }
    }
  ]
}